<?xml version="1.0" encoding="UTF-8"?>
<kml xmlns="http://www.opengis.net/kml/2.2">
<Document>
<Placemark>
<name>circuito.kml</name>
<LineString>
<extrude>1</extrude>
<tessellate>1</tessellate>
<coordinates>
140.2266254,36.5331544,153.76
140.2253702,36.5351305,153.1
140.2257488,36.5354854,153.32
140.2263676,36.5355433,153.04
140.2300680,36.5313955,152.72
140.2304633,36.5314282,153.29
140.2310973,36.5321566,153.55
140.2308445,36.5326510,152.92
140.2270096,36.5361145,150.47
140.2272730,36.5363616,149.65
140.2299473,36.5364852,149.46
140.2306558,36.5360915,149.82
140.2322311,36.5339919,158.95
140.2325895,36.5338825,160.31
140.2333110,36.5340389,162.78
140.2339270,36.5340280,165.94
140.2343220,36.5336711,167.61
140.2343138,36.5315066,168.83
140.2347526,36.5313996,169.47
140.2381555,36.5336683,177.75
140.2384208,36.5335589,178.01
140.2385699,36.5333500,152.74
140.2321691,36.5285886,155.76
140.2317592,36.5285384,152.74
140.2306018,36.5300994,147.45
140.2293284,36.5303672,150.29
140.2288407,36.5301055,151.92
140.2266254,36.5331544,153.76
</coordinates>
<altitudeMode>relativeToGround</altitudeMode>
</LineString>
<Style> id='lineaRoja'>
<LineStyle>
<color>#ff0000ff</color>
<width>5</width>
</LineStyle>
</Style>
</Placemark>
</Document>
</kml>
